{
  "type": "FeatureCollection",
  "features": [
    {
      "type": "Feature",
      "properties": {
        "norad_id": 41877,
        "name": "RESOURCESAT-2A",
        "group": "resource",
        "lat": -25.883860299914584,
        "lon": -124.83604490721615,
        "alt_km": 824.8470809254868,
        "timestamp": "2025-12-15T14:57:57.497578+00:00",
        "meta_object_name": "RESOURCESAT-2A",
        "meta_object_id": "2016-074A",
        "meta_epoch": "2025-12-14T22:47:47.967072",
        "meta_mean_motion": 14.21601348,
        "meta_eccentricity": 0.0001196,
        "meta_inclination": 98.7754,
        "meta_ra_of_asc_node": 58.7927,
        "meta_arg_of_pericenter": 244.4927,
        "meta_mean_anomaly": 115.6127,
        "meta_ephemeris_type": 0,
        "meta_classification_type": "U",
        "meta_norad_cat_id": 41877,
        "meta_element_set_no": 999,
        "meta_rev_at_epoch": 46812,
        "meta_bstar": 0.00016114914,
        "meta_mean_motion_dot": 3.09e-06,
        "meta_mean_motion_ddot": 0,
        "tle_line1": "1 41877U 16074A   25348.94986073  .00000309  00000+0  16115-3 0  9991",
        "tle_line2": "2 41877  98.7754  58.7927 0001196 244.4927 115.6127 14.21601348468120"
      },
      "geometry": {
        "type": "Point",
        "coordinates": [
          -124.83604490721615,
          -25.883860299914584
        ]
      }
    },
    {
      "type": "Feature",
      "properties": {
        "norad_id": 41948,
        "name": "CARTOSAT-2D",
        "group": "resource",
        "lat": 34.810147583463085,
        "lon": -127.71036869825811,
        "alt_km": 502.4727262857923,
        "timestamp": "2025-12-15T14:57:57.497587+00:00",
        "meta_object_name": "CARTOSAT-2D",
        "meta_object_id": "2017-008A",
        "meta_epoch": "2025-12-14T22:31:26.520096",
        "meta_mean_motion": 15.19285015,
        "meta_eccentricity": 0.00048109,
        "meta_inclination": 97.4393,
        "meta_ra_of_asc_node": 46.4024,
        "meta_arg_of_pericenter": 154.3105,
        "meta_mean_anomaly": 205.837,
        "meta_ephemeris_type": 0,
        "meta_classification_type": "U",
        "meta_norad_cat_id": 41948,
        "meta_element_set_no": 999,
        "meta_rev_at_epoch": 48960,
        "meta_bstar": 0.00020013849,
        "meta_mean_motion_dot": 4.155e-05,
        "meta_mean_motion_ddot": 0,
        "tle_line1": "1 41948U 17008A   25348.93850139  .00004155  00000+0  20014-3 0  9996",
        "tle_line2": "2 41948  97.4393  46.4024 0004810 154.3105 205.8370 15.19285015489604"
      },
      "geometry": {
        "type": "Point",
        "coordinates": [
          -127.71036869825811,
          34.810147583463085
        ]
      }
    },
    {
      "type": "Feature",
      "properties": {
        "norad_id": 42063,
        "name": "SENTINEL-2B",
        "group": "resource",
        "lat": -81.42118136412229,
        "lon": 150.75614887193294,
        "alt_km": 797.1678177335634,
        "timestamp": "2025-12-15T14:57:57.497596+00:00",
        "meta_object_name": "SENTINEL-2B",
        "meta_object_id": "2017-013A",
        "meta_epoch": "2025-12-14T22:36:07.409952",
        "meta_mean_motion": 14.30817201,
        "meta_eccentricity": 0.00011629,
        "meta_inclination": 98.5713,
        "meta_ra_of_asc_node": 61.3566,
        "meta_arg_of_pericenter": 92.6409,
        "meta_mean_anomaly": 267.4907,
        "meta_ephemeris_type": 0,
        "meta_classification_type": "U",
        "meta_norad_cat_id": 42063,
        "meta_element_set_no": 999,
        "meta_rev_at_epoch": 45829,
        "meta_bstar": 9.0811013e-05,
        "meta_mean_motion_dot": 1.94e-06,
        "meta_mean_motion_ddot": 0,
        "tle_line1": "1 42063U 17013A   25348.94175243  .00000194  00000+0  90811-4 0  9990",
        "tle_line2": "2 42063  98.5713  61.3566 0001162  92.6409 267.4907 14.30817201458297"
      },
      "geometry": {
        "type": "Point",
        "coordinates": [
          150.75614887193294,
          -81.42118136412229
        ]
      }
    },
    {
      "type": "Feature",
      "properties": {
        "norad_id": 42767,
        "name": "CARTOSAT-2E",
        "group": "resource",
        "lat": 54.215113624943186,
        "lon": 36.70428661534039,
        "alt_km": 504.4405134407252,
        "timestamp": "2025-12-15T14:57:57.497605+00:00",
        "meta_object_name": "CARTOSAT-2E",
        "meta_object_id": "2017-036C",
        "meta_epoch": "2025-12-14T22:55:03.024768",
        "meta_mean_motion": 15.19225854,
        "meta_eccentricity": 0.00020084,
        "meta_inclination": 97.4563,
        "meta_ra_of_asc_node": 46.5126,
        "meta_arg_of_pericenter": 227.2236,
        "meta_mean_anomaly": 132.883,
        "meta_ephemeris_type": 0,
        "meta_classification_type": "U",
        "meta_norad_cat_id": 42767,
        "meta_element_set_no": 999,
        "meta_rev_at_epoch": 47017,
        "meta_bstar": 0.00022420827,
        "meta_mean_motion_dot": 4.654e-05,
        "meta_mean_motion_ddot": 0,
        "tle_line1": "1 42767U 17036C   25348.95489612  .00004654  00000+0  22421-3 0  9991",
        "tle_line2": "2 42767  97.4563  46.5126 0002008 227.2236 132.8830 15.19225854470176"
      },
      "geometry": {
        "type": "Point",
        "coordinates": [
          36.70428661534039,
          54.215113624943186
        ]
      }
    },
    {
      "type": "Feature",
      "properties": {
        "norad_id": 42920,
        "name": "FORMOSAT-5",
        "group": "resource",
        "lat": 57.50139430780515,
        "lon": -102.95763587454246,
        "alt_km": 723.5394166241122,
        "timestamp": "2025-12-15T14:57:57.497615+00:00",
        "meta_object_name": "FORMOSAT-5",
        "meta_object_id": "2017-049A",
        "meta_epoch": "2025-12-14T21:51:26.699616",
        "meta_mean_motion": 14.51006692,
        "meta_eccentricity": 0.00098254,
        "meta_inclination": 98.2452,
        "meta_ra_of_asc_node": 63.1867,
        "meta_arg_of_pericenter": 288.0428,
        "meta_mean_anomaly": 71.9696,
        "meta_ephemeris_type": 0,
        "meta_classification_type": "U",
        "meta_norad_cat_id": 42920,
        "meta_element_set_no": 999,
        "meta_rev_at_epoch": 43995,
        "meta_bstar": 7.2539659e-05,
        "meta_mean_motion_dot": 2.43e-06,
        "meta_mean_motion_ddot": 0,
        "tle_line1": "1 42920U 17049A   25348.91072569  .00000243  00000+0  72540-4 0  9999",
        "tle_line2": "2 42920  98.2452  63.1867 0009825 288.0428  71.9696 14.51006692439958"
      },
      "geometry": {
        "type": "Point",
        "coordinates": [
          -102.95763587454246,
          57.50139430780515
        ]
      }
    },
    {
      "type": "Feature",
      "properties": {
        "norad_id": 42969,
        "name": "SENTINEL-5P",
        "group": "resource",
        "lat": -10.689048118557439,
        "lon": 106.51054757461934,
        "alt_km": 831.3520137658861,
        "timestamp": "2025-12-15T14:57:57.497624+00:00",
        "meta_object_name": "SENTINEL-5P",
        "meta_object_id": "2017-064A",
        "meta_epoch": "2025-12-14T19:27:43.916544",
        "meta_mean_motion": 14.19518145,
        "meta_eccentricity": 9.841e-05,
        "meta_inclination": 98.7785,
        "meta_ra_of_asc_node": 287.3766,
        "meta_arg_of_pericenter": 88.6901,
        "meta_mean_anomaly": 271.4387,
        "meta_ephemeris_type": 0,
        "meta_classification_type": "U",
        "meta_norad_cat_id": 42969,
        "meta_element_set_no": 999,
        "meta_rev_at_epoch": 42340,
        "meta_bstar": 7.0604463e-05,
        "meta_mean_motion_dot": 1.05e-06,
        "meta_mean_motion_ddot": 0,
        "tle_line1": "1 42969U 17064A   25348.81092496  .00000105  00000+0  70604-4 0  9995",
        "tle_line2": "2 42969  98.7785 287.3766 0000984  88.6901 271.4387 14.19518145423402"
      },
      "geometry": {
        "type": "Point",
        "coordinates": [
          106.51054757461934,
          -10.689048118557439
        ]
      }
    },
    {
      "type": "Feature",
      "properties": {
        "norad_id": 42987,
        "name": "SKYSAT-C11",
        "group": "resource",
        "lat": -10.993549880262627,
        "lon": -54.263265039632685,
        "alt_km": 428.2489736121479,
        "timestamp": "2025-12-15T14:57:57.497647+00:00",
        "meta_object_name": "SKYSAT-C11",
        "meta_object_id": "2017-068A",
        "meta_epoch": "2025-12-14T21:04:23.365344",
        "meta_mean_motion": 15.47548215,
        "meta_eccentricity": 0.00011058,
        "meta_inclination": 97.4136,
        "meta_ra_of_asc_node": 126.4223,
        "meta_arg_of_pericenter": 105.2284,
        "meta_mean_anomaly": 254.9089,
        "meta_ephemeris_type": 0,
        "meta_classification_type": "U",
        "meta_norad_cat_id": 42987,
        "meta_element_set_no": 999,
        "meta_rev_at_epoch": 45464,
        "meta_bstar": 0.00030007985,
        "meta_mean_motion_dot": 0.00015355,
        "meta_mean_motion_ddot": 0,
        "tle_line1": "1 42987U 17068A   25348.87804821  .00015355  00000+0  30008-3 0  9994",
        "tle_line2": "2 42987  97.4136 126.4223 0001105 105.2284 254.9089 15.47548215454643"
      },
      "geometry": {
        "type": "Point",
        "coordinates": [
          -54.263265039632685,
          -10.993549880262627
        ]
      }
    }
  ]
}